STARLINK-34140          
1 64085U 25107X   26068.38701486  .00022605  00000+0  82799-3 0  9999
2 64085  42.9957 203.2944 0000945 152.0067 208.0836 15.27598758 46053
BANDWAGON-4 OBJECT Q    
1 66307U 25248Q   26067.98911828  .00022547  00000+0  92242-3 0  9991
2 66307  45.4076 295.4821 0011280 209.4727 150.5526 15.23978167 19300
